[{"OBJECT_NAME":"STARLINK-2257","OBJECT_ID":"2021-018A","EPOCH":"2026-03-09T17:25:30.330336","MEAN_MOTION":15.30195877,"ECCENTRICITY":0.0001224,"INCLINATION":53.1595,"RA_OF_ASC_NODE":245.1686,"ARG_OF_PERICENTER":89.9599,"MEAN_ANOMALY":270.1542,"EPHEMERIS_TYPE":0,"CLASSIFICATION_TYPE":"U","NORAD_CAT_ID":47787,"ELEMENT_SET_NO":999,"REV_AT_EPOCH":27669,"BSTAR":-2.2394526e-5,"MEAN_MOTION_DOT":-1.022e-5,"MEAN_MOTION_DDOT":0},{"OBJECT_NAME":"PROTOMETHEE","OBJECT_ID":"2023-174BT","EPOCH":"2026-03-09T23:28:08.029344","MEAN_MOTION":15.30202663,"ECCENTRICITY":0.00088339,"INCLINATION":97.3826,"RA_OF_ASC_NODE":147.9552,"ARG_OF_PERICENTER":148.5993,"MEAN_ANOMALY":211.5776,"EPHEMERIS_TYPE":0,"CLASSIFICATION_TYPE":"U","NORAD_CAT_ID":58321,"ELEMENT_SET_NO":999,"REV_AT_EPOCH":12979,"BSTAR":0.00015715731,"MEAN_MOTION_DOT":4.52e-5,"MEAN_MOTION_DDOT":0}]
